{
  "norad_id": 64001,
  "name": "STARLINK-33927",
  "history": [
    {
      "epoch": "2026-04-11T12:52:32.506176Z",
      "apogee_km": 484.03020454799844,
      "perigee_km": 481.98558336960014,
      "latitude_deg": -1.974984443080593e-05,
      "longitude_deg": 140.01187239966714,
      "height_km": 482.6513457203077,
      "semi_major_axis_km": 6861.144893958799,
      "eccentricity": 0.000149,
      "inclination_deg": 42.9998,
      "raan_deg": 172.9019,
      "arg_perigee_deg": 277.4928,
      "mean_anomaly_deg": 82.5754,
      "mean_motion_rev_day": 15.2759376
    },
    {
      "epoch": "2026-04-12T12:24:52.858080Z",
      "apogee_km": 484.216520300055,
      "perigee_km": 481.7992017426195,
      "latitude_deg": -3.224792887341211e-05,
      "longitude_deg": 140.422846659261,
      "height_km": 482.6844974006922,
      "semi_major_axis_km": 6861.1448610213365,
      "eccentricity": 0.00017616,
      "inclination_deg": 43.0032,
      "raan_deg": 167.3644,
      "arg_perigee_deg": 274.7803,
      "mean_anomaly_deg": 85.2847,
      "mean_motion_rev_day": 15.27593771
    },
    {
      "epoch": "2026-04-14T13:03:43.567200Z",
      "apogee_km": 483.8567330433507,
      "perigee_km": 482.15859973841907,
      "latitude_deg": 5.333498825221295e-05,
      "longitude_deg": 117.26617257255481,
      "height_km": 482.6271876545405,
      "semi_major_axis_km": 6861.144666390885,
      "eccentricity": 0.00012375,
      "inclination_deg": 43.0007,
      "raan_deg": 155.9168,
      "arg_perigee_deg": 280.664,
      "mean_anomaly_deg": 79.4073,
      "mean_motion_rev_day": 15.27593836
    },
    {
      "epoch": "2026-04-15T11:01:54.488352Z",
      "apogee_km": 483.6783421390646,
      "perigee_km": 482.3379488234432,
      "latitude_deg": -1.53515385632039e-05,
      "longitude_deg": 141.64653260027686,
      "height_km": 483.05451652932413,
      "semi_major_axis_km": 6861.145145481253,
      "eccentricity": 9.768e-05,
      "inclination_deg": 43.0008,
      "raan_deg": 150.745,
      "arg_perigee_deg": 246.2374,
      "mean_anomaly_deg": 113.8375,
      "mean_motion_rev_day": 15.27593676
    },
    {
      "epoch": "2026-04-16T12:08:24.563040Z",
      "apogee_km": 483.8324684601439,
      "perigee_km": 482.22146716050156,
      "latitude_deg": -3.0225824624799823e-05,
      "longitude_deg": 118.08304411428401,
      "height_km": 483.0474588909102,
      "semi_major_axis_km": 6861.163967810323,
      "eccentricity": 0.0001174,
      "inclination_deg": 43.0001,
      "raan_deg": 144.838,
      "arg_perigee_deg": 252.3635,
      "mean_anomaly_deg": 107.7088,
      "mean_motion_rev_day": 15.2758739
    },
    {
      "epoch": "2026-04-17T10:06:36Z",
      "apogee_km": 483.9674359912797,
      "perigee_km": 482.11848521549564,
      "latitude_deg": -2.2835019186825408e-05,
      "longitude_deg": 142.46243000274745,
      "height_km": 482.9299298027203,
      "semi_major_axis_km": 6861.179960603387,
      "eccentricity": 0.00013474,
      "inclination_deg": 43.0009,
      "raan_deg": 139.6673,
      "arg_perigee_deg": 263.1519,
      "mean_anomaly_deg": 96.9179,
      "mean_motion_rev_day": 15.27582049
    },
    {
      "epoch": "2026-04-18T09:38:56.929056Z",
      "apogee_km": 483.8568082210759,
      "perigee_km": 482.19585780142097,
      "latitude_deg": 1.3296035478665984e-05,
      "longitude_deg": 142.8696463844907,
      "height_km": 482.89553862679713,
      "semi_major_axis_km": 6861.163333011248,
      "eccentricity": 0.00012104,
      "inclination_deg": 43.0018,
      "raan_deg": 134.1284,
      "arg_perigee_deg": 263.6061,
      "mean_anomaly_deg": 96.4653,
      "mean_motion_rev_day": 15.27587602
    },
    {
      "epoch": "2026-04-19T09:11:17.219616Z",
      "apogee_km": 483.9071151023645,
      "perigee_km": 482.0668244311928,
      "latitude_deg": -4.3410298738124474e-05,
      "longitude_deg": 143.27763029739927,
      "height_km": 483.1675690144016,
      "semi_major_axis_km": 6861.123969766778,
      "eccentricity": 0.00013411,
      "inclination_deg": 43.0021,
      "raan_deg": 128.5877,
      "arg_perigee_deg": 243.9642,
      "mean_anomaly_deg": 116.1071,
      "mean_motion_rev_day": 15.27600748
    },
    {
      "epoch": "2026-04-20T10:17:49.016256Z",
      "apogee_km": 484.23227773738927,
      "perigee_km": 482.2240933748817,
      "latitude_deg": 1.2620889705556536e-06,
      "longitude_deg": 119.70690710437248,
      "height_km": 482.977859146774,
      "semi_major_axis_km": 6861.365185556136,
      "eccentricity": 0.00014634,
      "inclination_deg": 43.0028,
      "raan_deg": 122.6806,
      "arg_perigee_deg": 271.5638,
      "mean_anomaly_deg": 88.5046,
      "mean_motion_rev_day": 15.27520193
    },
    {
      "epoch": "2026-04-21T17:40:55.695072Z",
      "apogee_km": 483.87864343610636,
      "perigee_km": 482.2319572840206,
      "latitude_deg": 2.6905719063334172e-05,
      "longitude_deg": 0.2525589676490784,
      "height_km": 483.2913318027062,
      "semi_major_axis_km": 6861.192300360063,
      "eccentricity": 0.00012,
      "inclination_deg": 42.9991,
      "raan_deg": 115.293,
      "arg_perigee_deg": 236.0473,
      "mean_anomaly_deg": 124.0265,
      "mean_motion_rev_day": 15.27577928
    },
    {
      "epoch": "2026-04-22T17:13:16.631040Z",
      "apogee_km": 484.0951847090646,
      "perigee_km": 481.9874307329328,
      "latitude_deg": 2.226199496549542e-05,
      "longitude_deg": 0.6628998858691041,
      "height_km": 482.842823286509,
      "semi_major_axis_km": 6861.178307720998,
      "eccentricity": 0.0001536,
      "inclination_deg": 43.0025,
      "raan_deg": 109.7573,
      "arg_perigee_deg": 268.6717,
      "mean_anomaly_deg": 91.3959,
      "mean_motion_rev_day": 15.27582601
    },
    {
      "epoch": "2026-04-22T23:29:54.111264Z",
      "apogee_km": 483.8428503755449,
      "perigee_km": 482.16049917248984,
      "latitude_deg": 3.944619679516891e-05,
      "longitude_deg": -95.23004044887162,
      "height_km": 483.1215059567844,
      "semi_major_axis_km": 6861.138674774017,
      "eccentricity": 0.0001226,
      "inclination_deg": 43.0004,
      "raan_deg": 108.2783,
      "arg_perigee_deg": 245.9075,
      "mean_anomaly_deg": 114.1649,
      "mean_motion_rev_day": 15.27595837
    },
    {
      "epoch": "2026-04-24T16:17:58.599744Z",
      "apogee_km": 484.0480714087489,
      "perigee_km": 482.0693025726205,
      "latitude_deg": -6.644987991340095e-07,
      "longitude_deg": 1.4729646715428244,
      "height_km": 483.2669704401978,
      "semi_major_axis_km": 6861.195686990684,
      "eccentricity": 0.0001442,
      "inclination_deg": 43.0015,
      "raan_deg": 98.6757,
      "arg_perigee_deg": 244.1389,
      "mean_anomaly_deg": 115.9314,
      "mean_motion_rev_day": 15.27576797
    },
    {
      "epoch": "2026-04-25T15:50:20.707296Z",
      "apogee_km": 484.15596382289823,
      "perigee_km": 482.01251830718957,
      "latitude_deg": -1.5705401053547998e-06,
      "longitude_deg": 1.8803167190230736,
      "height_km": 482.929749393224,
      "semi_major_axis_km": 6861.221241065044,
      "eccentricity": 0.0001562,
      "inclination_deg": 43.0029,
      "raan_deg": 93.1419,
      "arg_perigee_deg": 266.3428,
      "mean_anomaly_deg": 93.7245,
      "mean_motion_rev_day": 15.27568263
    },
    {
      "epoch": "2026-04-26T15:22:40.958976Z",
      "apogee_km": 484.6461586063933,
      "perigee_km": 481.30630590719556,
      "latitude_deg": 2.8227797481714626e-05,
      "longitude_deg": 2.289456142373405,
      "height_km": 483.1196384252378,
      "semi_major_axis_km": 6861.113232256794,
      "eccentricity": 0.00024339,
      "inclination_deg": 43.0034,
      "raan_deg": 87.6021,
      "arg_perigee_deg": 257.3523,
      "mean_anomaly_deg": 102.7057,
      "mean_motion_rev_day": 15.27604334
    },
    {
      "epoch": "2026-04-27T14:55:00.261120Z",
      "apogee_km": 483.98468307696476,
      "perigee_km": 481.83168709788515,
      "latitude_deg": -1.3039198328717681e-05,
      "longitude_deg": 2.700887393480089,
      "height_km": 482.7494040939569,
      "semi_major_axis_km": 6861.045185087425,
      "eccentricity": 0.0001569,
      "inclination_deg": 43.0025,
      "raan_deg": 82.0607,
      "arg_perigee_deg": 266.5855,
      "mean_anomaly_deg": 93.4817,
      "mean_motion_rev_day": 15.2762706
    },
    {
      "epoch": "2026-04-28T20:43:59.092032Z",
      "apogee_km": 483.9479085711728,
      "perigee_km": 482.20104412929413,
      "latitude_deg": 6.242546293081961e-05,
      "longitude_deg": -92.7829736662677,
      "height_km": 482.96728946656157,
      "semi_major_axis_km": 6861.211476350233,
      "eccentricity": 0.0001273,
      "inclination_deg": 43.0039,
      "raan_deg": 75.0464,
      "arg_perigee_deg": 262.3803,
      "mean_anomaly_deg": 97.6905,
      "mean_motion_rev_day": 15.27571524
    },
    {
      "epoch": "2026-04-29T13:59:42.698976Z",
      "apogee_km": 483.64554727921404,
      "perigee_km": 482.4119096812328,
      "latitude_deg": 2.030682321904313e-05,
      "longitude_deg": 3.5141562736485956,
      "height_km": 482.8146186230542,
      "semi_major_axis_km": 6861.165728480223,
      "eccentricity": 8.99e-05,
      "inclination_deg": 43.007,
      "raan_deg": 70.9842,
      "arg_perigee_deg": 269.1784,
      "mean_anomaly_deg": 90.8965,
      "mean_motion_rev_day": 15.27586802
    },
    {
      "epoch": "2026-04-30T13:32:03.479424Z",
      "apogee_km": 483.7752201515623,
      "perigee_km": 482.2744096161732,
      "latitude_deg": 4.402542305861414e-05,
      "longitude_deg": 3.920979489093118,
      "height_km": 482.8143519128091,
      "semi_major_axis_km": 6861.161814883867,
      "eccentricity": 0.00010937,
      "inclination_deg": 43.0043,
      "raan_deg": 65.4443,
      "arg_perigee_deg": 269.0361,
      "mean_anomaly_deg": 91.0366,
      "mean_motion_rev_day": 15.27588109
    }
  ]
}